[{"OBJECT_NAME":"STARLINK-4438","OBJECT_ID":"2022-105AL","EPOCH":"2026-03-09T15:20:08.690208","MEAN_MOTION":15.05649173,"ECCENTRICITY":0.0002025,"INCLINATION":97.6027,"RA_OF_ASC_NODE":311.1118,"ARG_OF_PERICENTER":67.8484,"MEAN_ANOMALY":292.2957,"EPHEMERIS_TYPE":0,"CLASSIFICATION_TYPE":"U","NORAD_CAT_ID":53682,"ELEMENT_SET_NO":999,"REV_AT_EPOCH":19329,"BSTAR":3.9471e-5,"MEAN_MOTION_DOT":5.09e-6,"MEAN_MOTION_DDOT":0},{"OBJECT_NAME":"PEGASUS DEB","OBJECT_ID":"1994-029AFX","EPOCH":"2026-03-01T06:33:22.731264","MEAN_MOTION":14.85739755,"ECCENTRICITY":0.0106553,"INCLINATION":81.851,"RA_OF_ASC_NODE":257.2393,"ARG_OF_PERICENTER":271.4617,"MEAN_ANOMALY":87.4394,"EPHEMERIS_TYPE":0,"CLASSIFICATION_TYPE":"U","NORAD_CAT_ID":39924,"ELEMENT_SET_NO":999,"REV_AT_EPOCH":63095,"BSTAR":0.00041812,"MEAN_MOTION_DOT":4.045e-5,"MEAN_MOTION_DDOT":0}]
